start=new Date('2022-03-06T00:00:00.000Z').valueOf();
sats=[{"ECCENTRICITY":"0.00011270","OBJECT_ID":"2022-017C","CENTER_NAME":"EARTH","TIME_SYSTEM":"UTC","MEAN_ELEMENT_THEORY":"SGP4","BSTAR":"-0.00642430000000","REV_AT_EPOCH":"179","PERIOD":"91.441","OBJECT_TYPE":"PAYLOAD","SITE":"AFWTR","SEMIMAJOR_AXIS":"6723.396","TLE_LINE1":"1 51770U 22017C   22064.91668981 -.00871693  00000-0 -64243-2 0  9991","ELEMENT_SET_NO":"999","ARG_OF_PERICENTER":"51.7763","MEAN_MOTION":"15.74779356","DECAY_DATE":null,"GP_ID":"198021717","COUNTRY_CODE":"US","APOAPSIS":"346.019","CLASSIFICATION_TYPE":"U","RCS_SIZE":"LARGE","OBJECT_NAME":"STARLINK-3612","MEAN_MOTION_DOT":"-0.00871693","PERIAPSIS":"344.503","MEAN_MOTION_DDOT":"0.0000000000000","LAUNCH_DATE":"2022-02-25","NORAD_CAT_ID":"51770","FILE":"3346512","REF_FRAME":"TEME","INCLINATION":"53.2175","MEAN_ANOMALY":"359.9400","TLE_LINE2":"2 51770  53.2175 102.6610 0001127  51.7763 359.9400 15.74779356  1792","EPHEMERIS_TYPE":"0","RA_OF_ASC_NODE":"102.6610","EPOCH":"2022-03-05T22:00:01.999584"},{"PERIAPSIS":"344.246","RCS_SIZE":"LARGE","MEAN_MOTION_DOT":"-0.00871481","OBJECT_NAME":"STARLINK-3614","APOAPSIS":"346.017","GP_ID":"198021082","COUNTRY_CODE":"US","CLASSIFICATION_TYPE":"U","MEAN_MOTION":"15.74824821","ARG_OF_PERICENTER":"38.4619","DECAY_DATE":null,"TLE_LINE2":"2 51771  53.2175 102.6585 0001317  38.4619  14.3930 15.74824821  1795","EPHEMERIS_TYPE":"0","RA_OF_ASC_NODE":"102.6585","EPOCH":"2022-03-05T22:00:01.999584","MEAN_ANOMALY":"14.3930","INCLINATION":"53.2175","LAUNCH_DATE":"2022-02-25","NORAD_CAT_ID":"51771","REF_FRAME":"TEME","FILE":"3346512","MEAN_MOTION_DDOT":"0.0000000000000","TIME_SYSTEM":"UTC","CENTER_NAME":"EARTH","REV_AT_EPOCH":"179","BSTAR":"-0.00640930000000","MEAN_ELEMENT_THEORY":"SGP4","OBJECT_ID":"2022-017D","ECCENTRICITY":"0.00013170","ELEMENT_SET_NO":"999","TLE_LINE1":"1 51771U 22017D   22064.91668981 -.00871481  00000-0 -64093-2 0  9990","SEMIMAJOR_AXIS":"6723.267","SITE":"AFWTR","PERIOD":"91.439","OBJECT_TYPE":"PAYLOAD"},{"MEAN_MOTION_DDOT":"0.0000000000000","FILE":"3346512","REF_FRAME":"TEME","LAUNCH_DATE":"2022-02-25","NORAD_CAT_ID":"51772","INCLINATION":"53.2175","MEAN_ANOMALY":"9.2604","EPOCH":"2022-03-05T22:00:01.999584","TLE_LINE2":"2 51772  53.2175 102.6552 0001180  45.3012   9.2604 15.74891500  1791","RA_OF_ASC_NODE":"102.6552","EPHEMERIS_TYPE":"0","DECAY_DATE":null,"MEAN_MOTION":"15.74891500","ARG_OF_PERICENTER":"45.3012","CLASSIFICATION_TYPE":"U","GP_ID":"198021611","COUNTRY_CODE":"US","APOAPSIS":"345.735","MEAN_MOTION_DOT":"-0.00871676","RCS_SIZE":"LARGE","OBJECT_NAME":"STARLINK-3623","PERIAPSIS":"344.149","OBJECT_TYPE":"PAYLOAD","PERIOD":"91.435","SITE":"AFWTR","SEMIMAJOR_AXIS":"6723.077","TLE_LINE1":"1 51772U 22017E   22064.91668981 -.00871676  00000-0 -63925-2 0  9990","ELEMENT_SET_NO":"999","ECCENTRICITY":"0.00011800","OBJECT_ID":"2022-017E","BSTAR":"-0.00639250000000","REV_AT_EPOCH":"179","MEAN_ELEMENT_THEORY":"SGP4","CENTER_NAME":"EARTH","TIME_SYSTEM":"UTC"},{"BSTAR":"-0.00640540000000","REV_AT_EPOCH":"179","MEAN_ELEMENT_THEORY":"SGP4","CENTER_NAME":"EARTH","TIME_SYSTEM":"UTC","ECCENTRICITY":"0.00011270","OBJECT_ID":"2022-017F","TLE_LINE1":"1 51773U 22017F   22064.91668981 -.00871701  00000-0 -64054-2 0  9994","ELEMENT_SET_NO":"999","OBJECT_TYPE":"PAYLOAD","PERIOD":"91.437","SITE":"AFWTR","SEMIMAJOR_AXIS":"6723.204","OBJECT_NAME":"STARLINK-3624","RCS_SIZE":"LARGE","MEAN_MOTION_DOT":"-0.00871701","PERIAPSIS":"344.312","DECAY_DATE":null,"MEAN_MOTION":"15.74846771","ARG_OF_PERICENTER":"48.9554","CLASSIFICATION_TYPE":"U","GP_ID":"198021505","COUNTRY_CODE":"US","APOAPSIS":"345.827","INCLINATION":"53.2175","MEAN_ANOMALY":"4.4705","EPOCH":"2022-03-05T22:00:01.999584","EPHEMERIS_TYPE":"0","TLE_LINE2":"2 51773  53.2175 102.6574 0001127  48.9554   4.4705 15.74846771  1796","RA_OF_ASC_NODE":"102.6574","MEAN_MOTION_DDOT":"0.0000000000000","REF_FRAME":"TEME","FILE":"3346512","NORAD_CAT_ID":"51773","LAUNCH_DATE":"2022-02-25"},{"ELEMENT_SET_NO":"999","TLE_LINE1":"1 51774U 22017G   22064.91668981 -.00871623  00000-0 -63801-2 0  9997","SEMIMAJOR_AXIS":"6722.955","SITE":"AFWTR","OBJECT_TYPE":"PAYLOAD","PERIOD":"91.432","BSTAR":"-0.00638010000000","MEAN_ELEMENT_THEORY":"SGP4","REV_AT_EPOCH":"180","TIME_SYSTEM":"UTC","CENTER_NAME":"EARTH","ECCENTRICITY":"0.00011410","OBJECT_ID":"2022-017G","EPOCH":"2022-03-05T22:00:01.999584","RA_OF_ASC_NODE":"102.6528","TLE_LINE2":"2 51774  53.2175 102.6528 0001141  49.7030   5.9959 15.74934521  1800","EPHEMERIS_TYPE":"0","MEAN_ANOMALY":"5.9959","INCLINATION":"53.2175","FILE":"3346512","REF_FRAME":"TEME","NORAD_CAT_ID":"51774","LAUNCH_DATE":"2022-02-25","MEAN_MOTION_DDOT":"0.0000000000000","PERIAPSIS":"344.052","RCS_SIZE":"LARGE","MEAN_MOTION_DOT":"-0.00871623","OBJECT_NAME":"STARLINK-3629","CLASSIFICATION_TYPE":"U","GP_ID":"198021823","COUNTRY_CODE":"US","APOAPSIS":"345.587","DECAY_DATE":null,"ARG_OF_PERICENTER":"49.7030","MEAN_MOTION":"15.74934521"},{"SITE":"AFWTR","SEMIMAJOR_AXIS":"6723.142","OBJECT_TYPE":"PAYLOAD","PERIOD":"91.436","ELEMENT_SET_NO":"999","TLE_LINE1":"1 51775U 22017H   22064.91668981 -.00871663  00000-0 -63991-2 0  9992","ECCENTRICITY":"0.00010620","OBJECT_ID":"2022-017H","REV_AT_EPOCH":"180","BSTAR":"-0.00639910000000","MEAN_ELEMENT_THEORY":"SGP4","CENTER_NAME":"EARTH","TIME_SYSTEM":"UTC","FILE":"3346512","REF_FRAME":"TEME","NORAD_CAT_ID":"51775","LAUNCH_DATE":"2022-02-25","MEAN_MOTION_DDOT":"0.0000000000000","EPOCH":"2022-03-05T22:00:01.999584","EPHEMERIS_TYPE":"0","TLE_LINE2":"2 51775  53.2175 102.6562 0001062  55.9893 358.0065 15.74868648  1803","RA_OF_ASC_NODE":"102.6562","MEAN_ANOMALY":"358.0065","INCLINATION":"53.2175","CLASSIFICATION_TYPE":"U","GP_ID":"198021400","APOAPSIS":"345.721","COUNTRY_CODE":"US","DECAY_DATE":null,"MEAN_MOTION":"15.74868648","ARG_OF_PERICENTER":"55.9893","PERIAPSIS":"344.293","OBJECT_NAME":"STARLINK-3620","RCS_SIZE":"LARGE","MEAN_MOTION_DOT":"-0.00871663"},{"OBJECT_TYPE":"PAYLOAD","PERIOD":"91.431","SEMIMAJOR_AXIS":"6722.890","SITE":"AFWTR","TLE_LINE1":"1 51776U 22017J   22064.91668981 -.00871593  00000-0 -63729-2 0  9994","ELEMENT_SET_NO":"999","ECCENTRICITY":"0.00013900","OBJECT_ID":"2022-017J","MEAN_ELEMENT_THEORY":"SGP4","BSTAR":"-0.00637290000000","REV_AT_EPOCH":"180","TIME_SYSTEM":"UTC","CENTER_NAME":"EARTH","MEAN_MOTION_DDOT":"0.0000000000000","FILE":"3346512","REF_FRAME":"TEME","LAUNCH_DATE":"2022-02-25","NORAD_CAT_ID":"51776","INCLINATION":"53.2175","MEAN_ANOMALY":"20.6253","EPOCH":"2022-03-05T22:00:01.999584","TLE_LINE2":"2 51776  53.2175 102.6517 0001390  35.6373  20.6253 15.74957111  1801","RA_OF_ASC_NODE":"102.6517","EPHEMERIS_TYPE":"0","DECAY_DATE":null,"MEAN_MOTION":"15.74957111","ARG_OF_PERICENTER":"35.6373","CLASSIFICATION_TYPE":"U","COUNTRY_CODE":"US","GP_ID":"198021294","APOAPSIS":"345.690","RCS_SIZE":"MEDIUM","MEAN_MOTION_DOT":"-0.00871593","OBJECT_NAME":"STARLINK-3608","PERIAPSIS":"343.821"},{"RCS_SIZE":"LARGE","OBJECT_NAME":"STARLINK-3625","MEAN_MOTION_DOT":"-0.00871550","PERIAPSIS":"344.031","DECAY_DATE":null,"ARG_OF_PERICENTER":"42.0517","MEAN_MOTION":"15.74913495","CLASSIFICATION_TYPE":"U","GP_ID":"198021188","COUNTRY_CODE":"US","APOAPSIS":"345.728","INCLINATION":"53.2175","MEAN_ANOMALY":"13.0772","EPOCH":"2022-03-05T22:00:01.999584","EPHEMERIS_TYPE":"0","TLE_LINE2":"2 51777  53.2175 102.6539 0001262  42.0517  13.0772 15.74913495  1805","RA_OF_ASC_NODE":"102.6539","MEAN_MOTION_DDOT":"0.0000000000000","REF_FRAME":"TEME","FILE":"3346512","NORAD_CAT_ID":"51777","LAUNCH_DATE":"2022-02-25","REV_AT_EPOCH":"180","BSTAR":"-0.00638510000000","MEAN_ELEMENT_THEORY":"SGP4","CENTER_NAME":"EARTH","TIME_SYSTEM":"UTC","OBJECT_ID":"2022-017K","ECCENTRICITY":"0.00012620","TLE_LINE1":"1 51777U 22017K   22064.91668981 -.00871550  00000-0 -63851-2 0  9994","ELEMENT_SET_NO":"999","OBJECT_TYPE":"PAYLOAD","PERIOD":"91.434","SITE":"AFWTR","SEMIMAJOR_AXIS":"6723.014"},{"FILE":"3346512","REF_FRAME":"TEME","NORAD_CAT_ID":"51778","LAUNCH_DATE":"2022-02-25","MEAN_MOTION_DDOT":"0.0000000000000","EPOCH":"2022-03-05T22:00:01.999584","EPHEMERIS_TYPE":"0","TLE_LINE2":"2 51778  53.2175 102.4312 0001273  52.5971 119.7363 15.81077813  1796","RA_OF_ASC_NODE":"102.4312","MEAN_ANOMALY":"119.7363","INCLINATION":"53.2175","CLASSIFICATION_TYPE":"U","COUNTRY_CODE":"US","GP_ID":"198021718","APOAPSIS":"328.247","DECAY_DATE":null,"ARG_OF_PERICENTER":"52.5971","MEAN_MOTION":"15.81077813","PERIAPSIS":"326.540","RCS_SIZE":"LARGE","MEAN_MOTION_DOT":"-0.00874574","OBJECT_NAME":"STARLINK-3615","SEMIMAJOR_AXIS":"6705.528","SITE":"AFWTR","OBJECT_TYPE":"PAYLOAD","PERIOD":"91.077","ELEMENT_SET_NO":"999","TLE_LINE1":"1 51778U 22017L   22064.91668981 -.00874574  00000-0 -48496-2 0  9992","ECCENTRICITY":"0.00012730","OBJECT_ID":"2022-017L","REV_AT_EPOCH":"179","BSTAR":"-0.00484960000000","MEAN_ELEMENT_THEORY":"SGP4","TIME_SYSTEM":"UTC","CENTER_NAME":"EARTH"},{"MEAN_MOTION_DDOT":"0.0000000000000","LAUNCH_DATE":"2022-02-25","NORAD_CAT_ID":"51779","FILE":"3346512","REF_FRAME":"TEME","MEAN_ANOMALY":"11.4912","INCLINATION":"53.2175","TLE_LINE2":"2 51779  53.2175 102.6505 0001219  45.3331  11.4912 15.74980064  1806","EPHEMERIS_TYPE":"0","RA_OF_ASC_NODE":"102.6505","EPOCH":"2022-03-05T22:00:01.999584","ARG_OF_PERICENTER":"45.3331","MEAN_MOTION":"15.74980064","DECAY_DATE":null,"APOAPSIS":"345.509","GP_ID":"198021083","COUNTRY_CODE":"US","CLASSIFICATION_TYPE":"U","RCS_SIZE":"LARGE","MEAN_MOTION_DOT":"-0.00871666","OBJECT_NAME":"STARLINK-3611","PERIAPSIS":"343.870","PERIOD":"91.430","OBJECT_TYPE":"PAYLOAD","SITE":"AFWTR","SEMIMAJOR_AXIS":"6722.825","TLE_LINE1":"1 51779U 22017M   22064.91668981 -.00871666  00000-0 -63675-2 0  9998","ELEMENT_SET_NO":"999","OBJECT_ID":"2022-017M","ECCENTRICITY":"0.00012190","CENTER_NAME":"EARTH","TIME_SYSTEM":"UTC","BSTAR":"-0.00636750000000","REV_AT_EPOCH":"180","MEAN_ELEMENT_THEORY":"SGP4"}];
